{
  "type": "FeatureCollection",
  "features": [
    {
      "type": "Feature",
      "properties": { "district": "CA-06", "representative": "Matsui" },
      "geometry": {
        "type": "Polygon",
        "coordinates": [[[-121.56,38.58],[-121.44,38.58],[-121.37,38.58],[-121.37,38.61],[-121.41,38.635],[-121.44,38.665],[-121.54,38.665],[-121.56,38.635],[-121.56,38.58]]]
      }
    },
    {
      "type": "Feature",
      "properties": { "district": "CA-07", "representative": "Bera" },
      "geometry": {
        "type": "Polygon",
        "coordinates": [[[-121.56,38.49],[-121.37,38.49],[-121.37,38.58],[-121.44,38.58],[-121.56,38.58],[-121.56,38.49]]]
      }
    }
  ]
}
